[{"OBJECT_NAME":"CUBESX-HSE 3 (RS42S)","OBJECT_ID":"2023-091N","EPOCH":"2026-03-09T22:57:25.321248","MEAN_MOTION":15.286147,"ECCENTRICITY":0.00127191,"INCLINATION":97.5203,"RA_OF_ASC_NODE":133.4295,"ARG_OF_PERICENTER":86.5376,"MEAN_ANOMALY":273.7318,"EPHEMERIS_TYPE":0,"CLASSIFICATION_TYPE":"U","NORAD_CAT_ID":57178,"ELEMENT_SET_NO":999,"REV_AT_EPOCH":14925,"BSTAR":0.00059055694,"MEAN_MOTION_DOT":0.00016417,"MEAN_MOTION_DDOT":0},{"OBJECT_NAME":"STARLINK-34710","OBJECT_ID":"2025-190Q","EPOCH":"2026-03-09T13:54:23.343840","MEAN_MOTION":15.30180461,"ECCENTRICITY":0.0001274,"INCLINATION":53.1593,"RA_OF_ASC_NODE":169.0283,"ARG_OF_PERICENTER":74.5628,"MEAN_ANOMALY":285.5514,"EPHEMERIS_TYPE":0,"CLASSIFICATION_TYPE":"U","NORAD_CAT_ID":65365,"ELEMENT_SET_NO":999,"REV_AT_EPOCH":2926,"BSTAR":0.00051091,"MEAN_MOTION_DOT":0.00014793,"MEAN_MOTION_DDOT":0}]
